
# Worst residual: 5.54 km
# MJD 59516.000000 (2021 Oct 29  0:00)
1963-039C = Vela 1B
1 00692U 63039C   21302.49919926  .00000000  00000-0  00000-0 0 11774
2 00692 012.2849 316.6280 5423154 267.0426 027.5746 00.22088321    09

# Worst residual: 3.76 km
# MJD 59517.000000 (2021 Oct 30  0:00)
1963-039C = Vela 1B
1 00692U 63039C   21303.49919926  .00000000  00000-0  00000-0 0 11775
2 00692 012.2799 316.6466 5423917 267.0496 107.0208 00.22091075    00

# Worst residual: 1.02 km
# MJD 59518.000000 (2021 Oct 31  0:00)
1963-039C = Vela 1B
1 00692U 63039C   21304.49919926  .00000000  00000-0  00000-0 0 11776
2 00692 012.2717 316.6534 5425516 267.0882 186.4158 00.22090102    07

# Worst residual: 21.38 km
# MJD 59519.000000 (2021 Nov  1  0:00)
1963-039C = Vela 1B
1 00692U 63039C   21305.49919926  .00000000  00000-0  00000-0 0 11777
2 00692 012.2647 316.6592 5426919 267.0196 266.0837 00.22071827    01

# Worst residual: 57.34 km
# MJD 59520.000000 (2021 Nov  2  0:00)
1963-039C = Vela 1B
1 00692U 63039C   21306.49919926  .00000000  00000-0  00000-0 0 11778
2 00692 012.2640 316.6462 5452291 267.0193 345.7221 00.21968303    04

# Worst residual: 20.71 km
# MJD 59521.000000 (2021 Nov  3  0:00)
1963-039C = Vela 1B
1 00692U 63039C   21307.49919926  .00000000  00000-0  00000-0 0 11779
2 00692 012.2607 316.7113 5432564 267.1086 065.0950 00.22084988    04

# Worst residual: 6.24 km
# MJD 59522.000000 (2021 Nov  4  0:00)
1963-039C = Vela 1B
1 00692U 63039C   21308.49919926  .00000000  00000-0  00000-0 0 11770
2 00692 012.2559 316.7506 5433206 267.0822 144.5694 00.22094252    00

# Worst residual: 6.24 km
# MJD 59523.000000 (2021 Nov  5  0:00)
1963-039C = Vela 1B
1 00692U 63039C   21309.49919926  .00000000  00000-0  00000-0 0 11771
2 00692 012.2488 316.7732 5432056 267.1655 223.8046 00.22090914    02

# Worst residual: 23.56 km
# MJD 59524.000000 (2021 Nov  6  0:00)
1963-039C = Vela 1B
1 00692U 63039C   21310.49919926  .00000000  00000-0  00000-0 0 11773
2 00692 012.2412 316.7873 5432418 267.1292 303.3250 00.22069547    03

# Worst residual: 56.97 km
# MJD 59525.000000 (2021 Nov  7  0:00)
1963-039C = Vela 1B
1 00692U 63039C   21311.49919926  .00000000  00000-0  00000-0 0 11774
2 00692 012.2227 316.7378 5450857 267.3664 022.6138 00.21976004    09

# Worst residual: 20.10 km
# MJD 59526.000000 (2021 Nov  8  0:00)
1963-039C = Vela 1B
1 00692U 63039C   21312.49919926  .00000000  00000-0  00000-0 0 11775
2 00692 012.2338 316.7723 5426345 267.3055 102.3261 00.22080974    01

# Worst residual: 1.85 km
# MJD 59527.000000 (2021 Nov  9  0:00)
1963-039C = Vela 1B
1 00692U 63039C   21313.49919926  .00000000  00000-0  00000-0 0 11776
2 00692 012.2286 316.8180 5424027 267.2273 181.9494 00.22091398    00

# Worst residual: 4.60 km
# MJD 59528.000000 (2021 Nov 10  0:00)
1963-039C = Vela 1B
1 00692U 63039C   21314.49919926  .00000000  00000-0  00000-0 0 11777
2 00692 012.2196 316.8761 5421133 267.2204 261.3185 00.22089948    02

# Worst residual: 1.85 km
# MJD 59529.000000 (2021 Nov 11  0:00)
1963-039C = Vela 1B
1 00692U 63039C   21315.49919926  .00000000  00000-0  00000-0 0 11778
2 00692 012.2106 316.9068 5418682 267.2156 340.7400 00.22093654    06

# Worst residual: 7.58 km
# MJD 59530.000000 (2021 Nov 12  0:00)
1963-039C = Vela 1B
1 00692U 63039C   21316.49919926  .00000000  00000-0  00000-0 0 11779
2 00692 012.1970 316.9231 5420347 267.2210 060.1895 00.22090936    09

# Worst residual: 4.42 km
# MJD 59531.000000 (2021 Nov 13  0:00)
1963-039C = Vela 1B
1 00692U 63039C   21317.49919926  .00000000  00000-0  00000-0 0 11770
2 00692 012.1681 316.8088 5430857 267.3022 139.6475 00.22107417    05

# Worst residual: 8.23 km
# MJD 59532.000000 (2021 Nov 14  0:00)
1963-039C = Vela 1B
1 00692U 63039C   21318.49919926  .00000000  00000-0  00000-0 0 11771
2 00692 012.1593 316.7802 5434981 267.3058 219.3156 00.22114902    00

# Worst residual: 47.77 km
# MJD 59533.000000 (2021 Nov 15  0:00)
1963-039C = Vela 1B
1 00692U 63039C   21319.49919926  .00000000  00000-0  00000-0 0 11772
2 00692 012.1532 316.8028 5439195 267.0588 299.3126 00.22035161    05

# Worst residual: 65.20 km
# MJD 59534.000000 (2021 Nov 16  0:00)
1963-039C = Vela 1B
1 00692U 63039C   21320.49919926  .00000000  00000-0  00000-0 0 11774
2 00692 012.1517 316.8377 5458467 267.2784 018.5567 00.21981175    02

# Worst residual: 8.50 km
# MJD 59535.000000 (2021 Nov 17  0:00)
1963-039C = Vela 1B
1 00692U 63039C   21321.49919926  .00000000  00000-0  00000-0 0 11775
2 00692 012.1463 316.8556 5433764 267.3033 098.1624 00.22074271    01

# Worst residual: 17.33 km
# MJD 59536.000000 (2021 Nov 18  0:00)
1963-039C = Vela 1B
1 00692U 63039C   21322.49919926  .00000000  00000-0  00000-0 0 11776
2 00692 012.1424 316.9452 5427594 267.4163 177.0910 00.22038229    01

# Worst residual: 8.68 km
# MJD 59537.000000 (2021 Nov 19  0:00)
1963-039C = Vela 1B
1 00692U 63039C   21323.49919926  .00000000  00000-0  00000-0 0 11777
2 00692 012.1286 317.1418 5430395 267.4637 255.8541 00.22067463    08

# Worst residual: 47.40 km
# MJD 59538.000000 (2021 Nov 20  0:00)
1963-039C = Vela 1B
1 00692U 63039C   21324.49919926  .00000000  00000-0  00000-0 0 11778
2 00692 012.1056 317.2333 5446884 267.3968 335.3938 00.22018970    09

# Worst residual: 57.56 km
# MJD 59539.000000 (2021 Nov 21  0:00)
1963-039C = Vela 1B
1 00692U 63039C   21325.49919926  .00000000  00000-0  00000-0 0 11779
2 00692 012.1060 317.1648 5443142 267.8038 054.4836 00.21987356    07

# Worst residual: 11.96 km
# MJD 59540.000000 (2021 Nov 22  0:00)
1963-039C = Vela 1B
1 00692U 63039C   21326.49919926  .00000000  00000-0  00000-0 0 11770
2 00692 012.1026 317.1834 5432391 267.5213 134.5390 00.22103788    07

# Worst residual: 3.84 km
# MJD 59541.000000 (2021 Nov 23  0:00)
1963-039C = Vela 1B
1 00692U 63039C   21327.49919926  .00000000  00000-0  00000-0 0 11771
2 00692 012.0960 317.2457 5431430 267.4102 214.2672 00.22107411    00

# Worst residual: 6.15 km
# MJD 59542.000000 (2021 Nov 24  0:00)
1963-039C = Vela 1B
1 00692U 63039C   21328.49919926  .00000000  00000-0  00000-0 0 11772
2 00692 012.0739 317.4091 5423390 267.2408 293.7297 00.22093662    00

# Worst residual: 8.96 km
# MJD 59543.000000 (2021 Nov 25  0:00)
1963-039C = Vela 1B
1 00692U 63039C   21329.49919926  .00000000  00000-0  00000-0 0 11773
2 00692 012.0486 317.4274 5424142 267.2429 013.1742 00.22077086    02

# Worst residual: 4.17 km
# MJD 59544.000000 (2021 Nov 26  0:00)
1963-039C = Vela 1B
1 00692U 63039C   21330.49919926  .00000000  00000-0  00000-0 0 11775
2 00692 012.0519 317.4471 5422370 267.2663 092.6019 00.22079464    00

# Worst residual: 1.36 km
# MJD 59545.000000 (2021 Nov 27  0:00)
1963-039C = Vela 1B
1 00692U 63039C   21331.49919926  .00000000  00000-0  00000-0 0 11776
2 00692 012.0437 317.4575 5424524 267.2509 172.0991 00.22089876    06
